{
  "type": "FeatureCollection",
  "name": "delhi_corridor_benchmark",
  "crs": {
    "type": "name",
    "properties": {
      "name": "urn:ogc:def:crs:OGC:1.3:CRS84"
    }
  },
  "features": [
    {
      "type": "Feature",
      "id": 101,
      "properties": {
        "id": 101,
        "name": "Barapullah Elevated Corridor Phase 1",
        "layer": 1,
        "speed_limit_kmh": 70.0,
        "one_way": true,
        "surface_condition": "asphalt",
        "elevation_m": 12.0
      },
      "geometry": {
        "type": "LineString",
        "coordinates": [
          [77.2185, 28.5832, 226.0],
          [77.2240, 28.5841, 227.5],
          [77.2315, 28.5855, 228.0],
          [77.2390, 28.5872, 227.0],
          [77.2465, 28.5890, 225.5]
        ]
      }
    },
    {
      "type": "Feature",
      "id": 102,
      "properties": {
        "id": 102,
        "name": "Mahatma Gandhi Ring Road (Surface)",
        "layer": 0,
        "speed_limit_kmh": 50.0,
        "one_way": false,
        "surface_condition": "potholed",
        "elevation_m": 0.0
      },
      "geometry": {
        "type": "LineString",
        "coordinates": [
          [77.2180, 28.5790, 214.0],
          [77.2235, 28.5810, 214.2],
          [77.2310, 28.5830, 214.5],
          [77.2385, 28.5848, 214.3],
          [77.2460, 28.5865, 214.0]
        ]
      }
    },
    {
      "type": "Feature",
      "id": 103,
      "properties": {
        "id": 103,
        "name": "AIIMS Flyover Underpass",
        "layer": -1,
        "speed_limit_kmh": 40.0,
        "one_way": true,
        "surface_condition": "concrete",
        "elevation_m": -6.0
      },
      "geometry": {
        "type": "LineString",
        "coordinates": [
          [77.2080, 28.5670, 208.0],
          [77.2095, 28.5685, 205.5],
          [77.2115, 28.5702, 205.0],
          [77.2135, 28.5720, 206.0],
          [77.2150, 28.5735, 209.0]
        ]
      }
    },
    {
      "type": "Feature",
      "id": 104,
      "properties": {
        "id": 104,
        "name": "Barapullah Entry Ramp from Ring Road",
        "layer": 0,
        "speed_limit_kmh": 40.0,
        "one_way": true,
        "surface_condition": "asphalt",
        "elevation_m": 6.0
      },
      "geometry": {
        "type": "LineString",
        "coordinates": [
          [77.2200, 28.5798, 214.0],
          [77.2218, 28.5815, 218.0],
          [77.2240, 28.5841, 227.5]
        ]
      }
    }
  ]
}
